HULIANWANG DIGUI 13A    
1 66412U 25258A   25329.36837538 -.00000247  00000+0 -38056-4 0  9995
2 66412  49.9987 335.1346 0017521 316.7425  43.2111 14.23569634  2182
HULIANWANG DIGUI 13B    
1 66413U 25258B   25329.37596962 -.00000243  00000+0 -36411-4 0  9999
2 66413  50.0009 335.1073 0013307 296.7941  63.1610 14.23477372  2188
HULIANWANG DIGUI 13C    
1 66414U 25258C   25329.37295613 -.00000234  00000+0 -32542-4 0  9990
2 66414  50.0051 335.1026 0013631 294.9905  64.9591 14.23502327  2180
HULIANWANG DIGUI 13D    
1 66415U 25258D   25326.56065765 -.00000188  00000+0 -11421-4 0  9993
2 66415  50.0048 346.8921 0013056 293.5399  66.4143 14.25899858  1788
HULIANWANG DIGUI 13E    
1 66416U 25258E   25329.37105876 -.00000224  00000+0 -28270-4 0  9995
2 66416  50.0049 335.0936 0012754 303.3533  56.6159 14.23463623  2188
HULIANWANG DIGUI 13F    
1 66417U 25258F   25329.36974840 -.00000214  00000+0 -23815-4 0  9999
2 66417  50.0006 335.0683 0012429 301.4258  58.5439 14.23471621  2182
HULIANWANG DIGUI 13G    
1 66418U 25258G   25329.36561845 -.00000168  00000+0 -39838-5 0  9998
2 66418  50.0022 335.0476 0012477 297.0640  62.8999 14.23482405  2180
HULIANWANG DIGUI 13H    
1 66419U 25258H   25329.36423624 -.00000149  00000+0  44169-5 0  9992
2 66419  50.0012 335.0386 0012119 298.8482  61.1214 14.23498878  2189
HULIANWANG DIGUI 13J    
1 66420U 25258J   25326.34657421 -.00000172  00000+0 -47791-5 0  9994
2 66420  50.0028 347.7517 0010939 293.8228  66.1539 14.26346428  1747
STARLINK-35617          
1 66422U 25259A   25329.50006943  .00128640  00000+0  83000-3 0  9995
2 66422  42.9994 148.9940 0001752 274.1622 139.4861 15.74978779  3507
STARLINK-35618          
1 66423U 25259B   25329.50006943  .00110800  00000+0  71681-3 0  9997
2 66423  42.9997 148.9892 0001796 269.9214 145.6403 15.74979650  3504
