CCSDS_OMM_VERS = 2.0
CREATION_DATE  = 
ORIGINATOR     = 

OBJECT_NAME    = HULIANWANG DIGUI 13A
OBJECT_ID      = 2025-258A
CENTER_NAME    = EARTH
REF_FRAME      = TEME
TIME_SYSTEM    = UTC
MEAN_ELEMENT_THEORY = SGP/SGP4

EPOCH          = 2025-11-25T08:50:27.632832
MEAN_MOTION    = 14.23569634
ECCENTRICITY   = .00175213
INCLINATION    = 49.9987
RA_OF_ASC_NODE = 335.1346
ARG_OF_PERICENTER = 316.7425
MEAN_ANOMALY   = 43.2111

EPHEMERIS_TYPE = 0
CLASSIFICATION_TYPE = U
NORAD_CAT_ID   = 66412
ELEMENT_SET_NO = 999
REV_AT_EPOCH   = 218
BSTAR          = -.38056396E-4
MEAN_MOTION_DOT = -.247E-5
MEAN_MOTION_DDOT = 0

CCSDS_OMM_VERS = 2.0
CREATION_DATE  = 
ORIGINATOR     = 

OBJECT_NAME    = HULIANWANG DIGUI 13B
OBJECT_ID      = 2025-258B
CENTER_NAME    = EARTH
REF_FRAME      = TEME
TIME_SYSTEM    = UTC
MEAN_ELEMENT_THEORY = SGP/SGP4

EPOCH          = 2025-11-25T09:01:23.775168
MEAN_MOTION    = 14.23477372
ECCENTRICITY   = .00133073
INCLINATION    = 50.0009
RA_OF_ASC_NODE = 335.1073
ARG_OF_PERICENTER = 296.7941
MEAN_ANOMALY   = 63.1610

EPHEMERIS_TYPE = 0
CLASSIFICATION_TYPE = U
NORAD_CAT_ID   = 66413
ELEMENT_SET_NO = 999
REV_AT_EPOCH   = 218
BSTAR          = -.36411086E-4
MEAN_MOTION_DOT = -.243E-5
MEAN_MOTION_DDOT = 0

CCSDS_OMM_VERS = 2.0
CREATION_DATE  = 
ORIGINATOR     = 

OBJECT_NAME    = HULIANWANG DIGUI 13C
OBJECT_ID      = 2025-258C
CENTER_NAME    = EARTH
REF_FRAME      = TEME
TIME_SYSTEM    = UTC
MEAN_ELEMENT_THEORY = SGP/SGP4

EPOCH          = 2025-11-25T08:57:03.409632
MEAN_MOTION    = 14.23502327
ECCENTRICITY   = .00136313
INCLINATION    = 50.0051
RA_OF_ASC_NODE = 335.1026
ARG_OF_PERICENTER = 294.9905
MEAN_ANOMALY   = 64.9591

EPHEMERIS_TYPE = 0
CLASSIFICATION_TYPE = U
NORAD_CAT_ID   = 66414
ELEMENT_SET_NO = 999
REV_AT_EPOCH   = 218
BSTAR          = -.32542107E-4
MEAN_MOTION_DOT = -.234E-5
MEAN_MOTION_DDOT = 0

CCSDS_OMM_VERS = 2.0
CREATION_DATE  = 
ORIGINATOR     = 

OBJECT_NAME    = HULIANWANG DIGUI 13D
OBJECT_ID      = 2025-258D
CENTER_NAME    = EARTH
REF_FRAME      = TEME
TIME_SYSTEM    = UTC
MEAN_ELEMENT_THEORY = SGP/SGP4

EPOCH          = 2025-11-22T13:27:20.820960
MEAN_MOTION    = 14.25899858
ECCENTRICITY   = .00130561
INCLINATION    = 50.0048
RA_OF_ASC_NODE = 346.8921
ARG_OF_PERICENTER = 293.5399
MEAN_ANOMALY   = 66.4143

EPHEMERIS_TYPE = 0
CLASSIFICATION_TYPE = U
NORAD_CAT_ID   = 66415
ELEMENT_SET_NO = 999
REV_AT_EPOCH   = 178
BSTAR          = -.1142075E-4
MEAN_MOTION_DOT = -.188E-5
MEAN_MOTION_DDOT = 0

CCSDS_OMM_VERS = 2.0
CREATION_DATE  = 
ORIGINATOR     = 

OBJECT_NAME    = HULIANWANG DIGUI 13E
OBJECT_ID      = 2025-258E
CENTER_NAME    = EARTH
REF_FRAME      = TEME
TIME_SYSTEM    = UTC
MEAN_ELEMENT_THEORY = SGP/SGP4

EPOCH          = 2025-11-25T08:54:19.476864
MEAN_MOTION    = 14.23463623
ECCENTRICITY   = .0012754
INCLINATION    = 50.0049
RA_OF_ASC_NODE = 335.0936
ARG_OF_PERICENTER = 303.3533
MEAN_ANOMALY   = 56.6159

EPHEMERIS_TYPE = 0
CLASSIFICATION_TYPE = U
NORAD_CAT_ID   = 66416
ELEMENT_SET_NO = 999
REV_AT_EPOCH   = 218
BSTAR          = -.28269946E-4
MEAN_MOTION_DOT = -.224E-5
MEAN_MOTION_DDOT = 0

CCSDS_OMM_VERS = 2.0
CREATION_DATE  = 
ORIGINATOR     = 

OBJECT_NAME    = HULIANWANG DIGUI 13F
OBJECT_ID      = 2025-258F
CENTER_NAME    = EARTH
REF_FRAME      = TEME
TIME_SYSTEM    = UTC
MEAN_ELEMENT_THEORY = SGP/SGP4

EPOCH          = 2025-11-25T08:52:26.261760
MEAN_MOTION    = 14.23471621
ECCENTRICITY   = .00124295
INCLINATION    = 50.0006
RA_OF_ASC_NODE = 335.0683
ARG_OF_PERICENTER = 301.4258
MEAN_ANOMALY   = 58.5439

EPHEMERIS_TYPE = 0
CLASSIFICATION_TYPE = U
NORAD_CAT_ID   = 66417
ELEMENT_SET_NO = 999
REV_AT_EPOCH   = 218
BSTAR          = -.23815087E-4
MEAN_MOTION_DOT = -.214E-5
MEAN_MOTION_DDOT = 0

CCSDS_OMM_VERS = 2.0
CREATION_DATE  = 
ORIGINATOR     = 

OBJECT_NAME    = HULIANWANG DIGUI 13G
OBJECT_ID      = 2025-258G
CENTER_NAME    = EARTH
REF_FRAME      = TEME
TIME_SYSTEM    = UTC
MEAN_ELEMENT_THEORY = SGP/SGP4

EPOCH          = 2025-11-25T08:46:29.434080
MEAN_MOTION    = 14.23482405
ECCENTRICITY   = .00124772
INCLINATION    = 50.0022
RA_OF_ASC_NODE = 335.0476
ARG_OF_PERICENTER = 297.0640
MEAN_ANOMALY   = 62.8999

EPHEMERIS_TYPE = 0
CLASSIFICATION_TYPE = U
NORAD_CAT_ID   = 66418
ELEMENT_SET_NO = 999
REV_AT_EPOCH   = 218
BSTAR          = -.3983838E-5
MEAN_MOTION_DOT = -.168E-5
MEAN_MOTION_DDOT = 0

CCSDS_OMM_VERS = 2.0
CREATION_DATE  = 
ORIGINATOR     = 

OBJECT_NAME    = HULIANWANG DIGUI 13H
OBJECT_ID      = 2025-258H
CENTER_NAME    = EARTH
REF_FRAME      = TEME
TIME_SYSTEM    = UTC
MEAN_ELEMENT_THEORY = SGP/SGP4

EPOCH          = 2025-11-25T08:44:30.011136
MEAN_MOTION    = 14.23498878
ECCENTRICITY   = .00121192
INCLINATION    = 50.0012
RA_OF_ASC_NODE = 335.0386
ARG_OF_PERICENTER = 298.8482
MEAN_ANOMALY   = 61.1214

EPHEMERIS_TYPE = 0
CLASSIFICATION_TYPE = U
NORAD_CAT_ID   = 66419
ELEMENT_SET_NO = 999
REV_AT_EPOCH   = 218
BSTAR          = .4416923E-5
MEAN_MOTION_DOT = -.149E-5
MEAN_MOTION_DDOT = 0

CCSDS_OMM_VERS = 2.0
CREATION_DATE  = 
ORIGINATOR     = 

OBJECT_NAME    = HULIANWANG DIGUI 13J
OBJECT_ID      = 2025-258J
CENTER_NAME    = EARTH
REF_FRAME      = TEME
TIME_SYSTEM    = UTC
MEAN_ELEMENT_THEORY = SGP/SGP4

EPOCH          = 2025-11-22T08:19:04.011744
MEAN_MOTION    = 14.26346428
ECCENTRICITY   = .00109393
INCLINATION    = 50.0028
RA_OF_ASC_NODE = 347.7517
ARG_OF_PERICENTER = 293.8228
MEAN_ANOMALY   = 66.1539

EPHEMERIS_TYPE = 0
CLASSIFICATION_TYPE = U
NORAD_CAT_ID   = 66420
ELEMENT_SET_NO = 999
REV_AT_EPOCH   = 174
BSTAR          = -.4779134E-5
MEAN_MOTION_DOT = -.172E-5
MEAN_MOTION_DDOT = 0

CCSDS_OMM_VERS = 2.0
CREATION_DATE  = 
ORIGINATOR     = 

OBJECT_NAME    = STARLINK-35617
OBJECT_ID      = 2025-259A
CENTER_NAME    = EARTH
REF_FRAME      = TEME
TIME_SYSTEM    = UTC
MEAN_ELEMENT_THEORY = SGP/SGP4

EPOCH          = 2025-11-25T12:00:05.998752
MEAN_MOTION    = 15.74978779
ECCENTRICITY   = .0001752
INCLINATION    = 42.9994
RA_OF_ASC_NODE = 148.9940
ARG_OF_PERICENTER = 274.1622
MEAN_ANOMALY   = 139.4861

EPHEMERIS_TYPE = 0
CLASSIFICATION_TYPE = U
NORAD_CAT_ID   = 66422
ELEMENT_SET_NO = 999
REV_AT_EPOCH   = 350
BSTAR          = .83E-3
MEAN_MOTION_DOT = .12864E-2
MEAN_MOTION_DDOT = 0

CCSDS_OMM_VERS = 2.0
CREATION_DATE  = 
ORIGINATOR     = 

OBJECT_NAME    = STARLINK-35618
OBJECT_ID      = 2025-259B
CENTER_NAME    = EARTH
REF_FRAME      = TEME
TIME_SYSTEM    = UTC
MEAN_ELEMENT_THEORY = SGP/SGP4

EPOCH          = 2025-11-25T12:00:05.998752
MEAN_MOTION    = 15.74979650
ECCENTRICITY   = .0001796
INCLINATION    = 42.9997
RA_OF_ASC_NODE = 148.9892
ARG_OF_PERICENTER = 269.9214
MEAN_ANOMALY   = 145.6403

EPHEMERIS_TYPE = 0
CLASSIFICATION_TYPE = U
NORAD_CAT_ID   = 66423
ELEMENT_SET_NO = 999
REV_AT_EPOCH   = 350
BSTAR          = .71681E-3
MEAN_MOTION_DOT = .1108E-2
MEAN_MOTION_DDOT = 0

